[{"OBJECT_NAME":"STARLINK-33572","OBJECT_ID":"2025-015K","EPOCH":"2026-03-09T21:39:08.736480","MEAN_MOTION":15.30227181,"ECCENTRICITY":0.00010463,"INCLINATION":53.161,"RA_OF_ASC_NODE":321.4694,"ARG_OF_PERICENTER":75.9298,"MEAN_ANOMALY":284.1819,"EPHEMERIS_TYPE":0,"CLASSIFICATION_TYPE":"U","NORAD_CAT_ID":62767,"ELEMENT_SET_NO":999,"REV_AT_EPOCH":6445,"BSTAR":0.00086799094,"MEAN_MOTION_DOT":0.00025458,"MEAN_MOTION_DDOT":0},{"OBJECT_NAME":"ELECTRON KICK STAGE R\/B","OBJECT_ID":"2025-061J","EPOCH":"2026-03-09T21:50:35.145600","MEAN_MOTION":15.31602074,"ECCENTRICITY":0.00402669,"INCLINATION":97.5479,"RA_OF_ASC_NODE":52.3854,"ARG_OF_PERICENTER":150.2628,"MEAN_ANOMALY":210.0914,"EPHEMERIS_TYPE":0,"CLASSIFICATION_TYPE":"U","NORAD_CAT_ID":63359,"ELEMENT_SET_NO":999,"REV_AT_EPOCH":5306,"BSTAR":0.0006963674,"MEAN_MOTION_DOT":0.00021749,"MEAN_MOTION_DDOT":0}]
